{
  "type": "FeatureCollection",
  "features": [
    {
      "type": "Feature",
      "properties": {
        "norad_id": 44231,
        "name": "BEIDOU-2 G8 (C01)",
        "group": "gnss",
        "lat": 1.4465755621813083,
        "lon": 132.30646966352654,
        "alt_km": 35817.706812371674,
        "timestamp": "2025-12-25T16:53:14.906654+00:00",
        "meta_object_name": "BEIDOU-2 G8 (C01)",
        "meta_object_id": "2019-027A",
        "meta_epoch": "2025-12-25T00:03:30.600000",
        "meta_mean_motion": 1.00274531,
        "meta_eccentricity": 0.00082946,
        "meta_inclination": 1.691,
        "meta_ra_of_asc_node": 74.7363,
        "meta_arg_of_pericenter": 259.0794,
        "meta_mean_anomaly": 265.3408,
        "meta_ephemeris_type": 0,
        "meta_classification_type": "U",
        "meta_norad_cat_id": 44231,
        "meta_element_set_no": 999,
        "meta_rev_at_epoch": 2433,
        "meta_bstar": 0,
        "meta_mean_motion_dot": -2.26e-06,
        "meta_mean_motion_ddot": 0,
        "tle_line1": "1 44231U 19027A   25359.00243750 -.00000226  00000+0  00000+0 0  9997",
        "tle_line2": "2 44231   1.6910  74.7363 0008294 259.0794 265.3408  1.00274531 24335"
      },
      "geometry": {
        "type": "Point",
        "coordinates": [
          132.30646966352654,
          1.4465755621813083
        ]
      }
    },
    {
      "type": "Feature",
      "properties": {
        "norad_id": 44299,
        "name": "COSMOS 2534 (758)",
        "group": "gnss",
        "lat": -56.751352334857515,
        "lon": 65.57282016743595,
        "alt_km": 19118.202086134617,
        "timestamp": "2025-12-25T16:53:14.906672+00:00",
        "meta_object_name": "COSMOS 2534 (758)",
        "meta_object_id": "2019-030A",
        "meta_epoch": "2025-12-25T02:45:29.854368",
        "meta_mean_motion": 2.13102173,
        "meta_eccentricity": 0.00086185,
        "meta_inclination": 64.3664,
        "meta_ra_of_asc_node": 198.4757,
        "meta_arg_of_pericenter": 283.7292,
        "meta_mean_anomaly": 232.7894,
        "meta_ephemeris_type": 0,
        "meta_classification_type": "U",
        "meta_norad_cat_id": 44299,
        "meta_element_set_no": 999,
        "meta_rev_at_epoch": 5121,
        "meta_bstar": 0,
        "meta_mean_motion_dot": 1.03e-06,
        "meta_mean_motion_ddot": 0,
        "tle_line1": "1 44299U 19030A   25359.11492887  .00000103  00000+0  00000+0 0  9997",
        "tle_line2": "2 44299  64.3664 198.4757 0008618 283.7292 232.7894  2.13102173 51210"
      },
      "geometry": {
        "type": "Point",
        "coordinates": [
          65.57282016743595,
          -56.751352334857515
        ]
      }
    },
    {
      "type": "Feature",
      "properties": {
        "norad_id": 44337,
        "name": "BEIDOU-3 IGSO-2 (C39)",
        "group": "gnss",
        "lat": -40.86993251546509,
        "lon": 123.39115135499998,
        "alt_km": 35832.55370371914,
        "timestamp": "2025-12-25T16:53:14.906693+00:00",
        "meta_object_name": "BEIDOU-3 IGSO-2 (C39)",
        "meta_object_id": "2019-035A",
        "meta_epoch": "2025-12-24T20:30:50.966784",
        "meta_mean_motion": 1.00267539,
        "meta_eccentricity": 0.00378522,
        "meta_inclination": 55.2292,
        "meta_ra_of_asc_node": 160.3949,
        "meta_arg_of_pericenter": 202.5754,
        "meta_mean_anomaly": 157.6854,
        "meta_ephemeris_type": 0,
        "meta_classification_type": "U",
        "meta_norad_cat_id": 44337,
        "meta_element_set_no": 999,
        "meta_rev_at_epoch": 2392,
        "meta_bstar": 0,
        "meta_mean_motion_dot": -7e-07,
        "meta_mean_motion_ddot": 0,
        "tle_line1": "1 44337U 19035A   25358.85475656 -.00000070  00000+0  00000+0 0  9994",
        "tle_line2": "2 44337  55.2292 160.3949 0037852 202.5754 157.6854  1.00267539 23925"
      },
      "geometry": {
        "type": "Point",
        "coordinates": [
          123.39115135499998,
          -40.86993251546509
        ]
      }
    },
    {
      "type": "Feature",
      "properties": {
        "norad_id": 44506,
        "name": "GPS BIII-2  (PRN 18)",
        "group": "gnss",
        "lat": 32.69002320290868,
        "lon": 3.9783492147517125,
        "alt_km": 20319.643580052572,
        "timestamp": "2025-12-25T16:53:14.906712+00:00",
        "meta_object_name": "GPS BIII-2  (PRN 18)",
        "meta_object_id": "2019-056A",
        "meta_epoch": "2025-12-25T04:27:47.883168",
        "meta_mean_motion": 2.00566525,
        "meta_eccentricity": 0.00577677,
        "meta_inclination": 55.7168,
        "meta_ra_of_asc_node": 338.0593,
        "meta_arg_of_pericenter": 198.6492,
        "meta_mean_anomaly": 188.635,
        "meta_ephemeris_type": 0,
        "meta_classification_type": "U",
        "meta_norad_cat_id": 44506,
        "meta_element_set_no": 999,
        "meta_rev_at_epoch": 4658,
        "meta_bstar": 0,
        "meta_mean_motion_dot": -5.9e-07,
        "meta_mean_motion_ddot": 0,
        "tle_line1": "1 44506U 19056A   25359.18597087 -.00000059  00000+0  00000+0 0  9992",
        "tle_line2": "2 44506  55.7168 338.0593 0057767 198.6492 188.6350  2.00566525 46580"
      },
      "geometry": {
        "type": "Point",
        "coordinates": [
          3.9783492147517125,
          32.69002320290868
        ]
      }
    },
    {
      "type": "Feature",
      "properties": {
        "norad_id": 44542,
        "name": "BEIDOU-3 M24 (C46)",
        "group": "gnss",
        "lat": -49.18850567906027,
        "lon": 132.4894649520946,
        "alt_km": 21535.93516967552,
        "timestamp": "2025-12-25T16:53:14.906732+00:00",
        "meta_object_name": "BEIDOU-3 M24 (C46)",
        "meta_object_id": "2019-061A",
        "meta_epoch": "2025-12-24T17:34:06.027744",
        "meta_mean_motion": 1.86229347,
        "meta_eccentricity": 0.00095746,
        "meta_inclination": 54.4007,
        "meta_ra_of_asc_node": 188.6113,
        "meta_arg_of_pericenter": 26.2213,
        "meta_mean_anomaly": 333.8628,
        "meta_ephemeris_type": 0,
        "meta_classification_type": "U",
        "meta_norad_cat_id": 44542,
        "meta_element_set_no": 999,
        "meta_rev_at_epoch": 4254,
        "meta_bstar": 0,
        "meta_mean_motion_dot": 1.06e-06,
        "meta_mean_motion_ddot": 0,
        "tle_line1": "1 44542U 19061A   25358.73201421  .00000106  00000+0  00000+0 0  9994",
        "tle_line2": "2 44542  54.4007 188.6113 0009574  26.2213 333.8628  1.86229347 42540"
      },
      "geometry": {
        "type": "Point",
        "coordinates": [
          132.4894649520946,
          -49.18850567906027
        ]
      }
    },
    {
      "type": "Feature",
      "properties": {
        "norad_id": 44543,
        "name": "BEIDOU-3 M23 (C45)",
        "group": "gnss",
        "lat": -19.46788415343963,
        "lon": 23.224963044722326,
        "alt_km": 21547.843988364977,
        "timestamp": "2025-12-25T16:53:14.906750+00:00",
        "meta_object_name": "BEIDOU-3 M23 (C45)",
        "meta_object_id": "2019-061B",
        "meta_epoch": "2025-12-25T03:38:38.812704",
        "meta_mean_motion": 1.86227443,
        "meta_eccentricity": 0.0006014,
        "meta_inclination": 54.3997,
        "meta_ra_of_asc_node": 188.5655,
        "meta_arg_of_pericenter": 25.8754,
        "meta_mean_anomaly": 168.3625,
        "meta_ephemeris_type": 0,
        "meta_classification_type": "U",
        "meta_norad_cat_id": 44543,
        "meta_element_set_no": 999,
        "meta_rev_at_epoch": 4255,
        "meta_bstar": 0,
        "meta_mean_motion_dot": 1.1e-06,
        "meta_mean_motion_ddot": 0,
        "tle_line1": "1 44543U 19061B   25359.15183811  .00000110  00000+0  00000+0 0  9999",
        "tle_line2": "2 44543  54.3997 188.5655 0006014  25.8754 168.3625  1.86227443 42553"
      },
      "geometry": {
        "type": "Point",
        "coordinates": [
          23.224963044722326,
          -19.46788415343963
        ]
      }
    },
    {
      "type": "Feature",
      "properties": {
        "norad_id": 44624,
        "name": "EUTELSAT 5 WEST B (EGNOS/PRN 121)",
        "group": "gnss",
        "lat": -0.009894904217546319,
        "lon": -17.199928130777657,
        "alt_km": 35781.56209516188,
        "timestamp": "2025-12-25T16:53:14.906768+00:00",
        "meta_object_name": "EUTELSAT 5 WEST B (EGNOS/PRN 121)",
        "meta_object_id": "2019-067A",
        "meta_epoch": "2025-12-25T06:11:32.851104",
        "meta_mean_motion": 1.0027129,
        "meta_eccentricity": 0.00031685,
        "meta_inclination": 0.063,
        "meta_ra_of_asc_node": 344.5526,
        "meta_arg_of_pericenter": 288.486,
        "meta_mean_anomaly": 268.8705,
        "meta_ephemeris_type": 0,
        "meta_classification_type": "U",
        "meta_norad_cat_id": 44624,
        "meta_element_set_no": 999,
        "meta_rev_at_epoch": 2269,
        "meta_bstar": 0,
        "meta_mean_motion_dot": -2.1e-07,
        "meta_mean_motion_ddot": 0,
        "tle_line1": "1 44624U 19067A   25359.25801911 -.00000021  00000+0  00000+0 0  9996",
        "tle_line2": "2 44624   0.0630 344.5526 0003168 288.4860 268.8705  1.00271290 22691"
      },
      "geometry": {
        "type": "Point",
        "coordinates": [
          -17.199928130777657,
          -0.009894904217546319
        ]
      }
    }
  ]
}